ICEYE-X53               
1 64584U 25135BJ  26195.15844443  .00001618  00000+0  13184-3 0  9994
2 64584  97.7365 311.8219 0001904 166.2047 193.9229 15.00889812 58124
ICEYE-X58               
1 66751U 25276CP  26195.15840154  .00001458  00000+0  76462-4 0  9994
2 66751  97.4197 268.0583 0002090 218.5942 141.5142 15.17303785 34508
ICEYE-X59               
1 66752U 25276CQ  26195.14566877  .00002758  00000+0  22192-3 0  9995
2 66752  97.4389 265.2907 0000940 141.8778 218.2513 15.00747310 34319
ICEYE-X60               
1 66753U 25276CR  26193.74930697  .00003164  00000+0  19247-3 0  9994
2 66753  97.4200 265.6603 0001480 353.8857   6.2355 15.11136424 34221
ICEYE-X61               
1 66754U 25276CS  26195.17747007  .00001751  00000+0  87872-4 0  9995
2 66754  97.4195 268.1645 0001979 220.6954 139.4133 15.18605600 34510
ICEYE-X62               
1 66755U 25276CT  26194.63506093  .00001072  00000+0  69543-4 0  9995
2 66755  97.4194 266.0153 0000640 265.3989  94.7167 15.10128811 34324
ICEYE-X63               
1 67372U 26004K   26194.97417094  .00000465  00000+0  56070-4 0  9996
2 67372  97.8013 193.1960 0005471  55.2060 304.9671 14.88347645 27288
ICEYE-X64               
1 67373U 26004L   26194.95533808  .00000671  00000+0  79104-4 0  9999
2 67373  97.8026 193.0972 0007306  57.3222 302.8698 14.87985396 27272
ICEYE-X71               
1 68494U 26067CG  26194.82562961  .00001480  00000+0  15230-3 0  9999
2 68494  97.7625 152.6540 0001119 352.2626   7.8575 14.91789195 15697
ICEYE-X73               
1 68496U 26067CJ  26194.85383478  .00001173  00000+0  12017-3 0  9997
2 68496  97.7620 152.7665 0001386 150.7205 209.4092 14.92345285 15708
ICEYE-X75               
1 68497U 26067CK  26194.85816101  .00000365  00000+0  41319-4 0  9992
2 68497  97.7605 152.7385 0001294 146.8802 213.2498 14.92172422 15702
ICEYE-X74               
1 68500U 26067CN  26194.89183959  .00001472  00000+0  15154-3 0  9996
2 68500  97.7632 152.7292 0000946 348.8973  11.2225 14.91789619 15705
ICEYE-X76               
1 68502U 26067CQ  26194.82061757  .00000600  00000+0  65095-4 0  9994
2 68502  97.7639 152.6771 0000646 330.5750  29.5432 14.91748923 15696
