{"fetched_at":"2026-07-14T17:40:50.181Z","source":"https://celestrak.org/NORAD/elements/gp.php?NAME=ICEYE&FORMAT=JSON","constellation":"iceye","records":[{"OBJECT_NAME":"ICEYE-X53","OBJECT_ID":"2025-135BJ","EPOCH":"2026-07-14T03:48:09.598752","CLASSIFICATION_TYPE":"U","MEAN_MOTION":15.00889812,"ECCENTRICITY":0.0001904,"INCLINATION":97.7365,"RA_OF_ASC_NODE":311.8219,"ARG_OF_PERICENTER":166.2047,"MEAN_ANOMALY":193.9229,"EPHEMERIS_TYPE":0,"NORAD_CAT_ID":64584,"ELEMENT_SET_NO":999,"REV_AT_EPOCH":5812,"BSTAR":0.00013184,"MEAN_MOTION_DOT":0.00001618,"MEAN_MOTION_DDOT":0},{"OBJECT_NAME":"ICEYE-X58","OBJECT_ID":"2025-276CP","EPOCH":"2026-07-14T03:48:05.893056","CLASSIFICATION_TYPE":"U","MEAN_MOTION":15.17303785,"ECCENTRICITY":0.000209,"INCLINATION":97.4197,"RA_OF_ASC_NODE":268.0583,"ARG_OF_PERICENTER":218.5942,"MEAN_ANOMALY":141.5142,"EPHEMERIS_TYPE":0,"NORAD_CAT_ID":66751,"ELEMENT_SET_NO":999,"REV_AT_EPOCH":3450,"BSTAR":0.000076462,"MEAN_MOTION_DOT":0.00001458,"MEAN_MOTION_DDOT":0},{"OBJECT_NAME":"ICEYE-X59","OBJECT_ID":"2025-276CQ","EPOCH":"2026-07-14T03:29:45.781728","CLASSIFICATION_TYPE":"U","MEAN_MOTION":15.0074731,"ECCENTRICITY":0.000094,"INCLINATION":97.4389,"RA_OF_ASC_NODE":265.2907,"ARG_OF_PERICENTER":141.8778,"MEAN_ANOMALY":218.2513,"EPHEMERIS_TYPE":0,"NORAD_CAT_ID":66752,"ELEMENT_SET_NO":999,"REV_AT_EPOCH":3431,"BSTAR":0.00022192,"MEAN_MOTION_DOT":0.00002758,"MEAN_MOTION_DDOT":0},{"OBJECT_NAME":"ICEYE-X60","OBJECT_ID":"2025-276CR","EPOCH":"2026-07-12T17:59:00.122208","CLASSIFICATION_TYPE":"U","MEAN_MOTION":15.11136424,"ECCENTRICITY":0.00014809,"INCLINATION":97.42,"RA_OF_ASC_NODE":265.6603,"ARG_OF_PERICENTER":353.8857,"MEAN_ANOMALY":6.2355,"EPHEMERIS_TYPE":0,"NORAD_CAT_ID":66753,"ELEMENT_SET_NO":999,"REV_AT_EPOCH":3422,"BSTAR":0.00019247041,"MEAN_MOTION_DOT":0.00003164,"MEAN_MOTION_DDOT":0},{"OBJECT_NAME":"ICEYE-X61","OBJECT_ID":"2025-276CS","EPOCH":"2026-07-14T04:15:33.414048","CLASSIFICATION_TYPE":"U","MEAN_MOTION":15.186056,"ECCENTRICITY":0.0001979,"INCLINATION":97.4195,"RA_OF_ASC_NODE":268.1645,"ARG_OF_PERICENTER":220.6954,"MEAN_ANOMALY":139.4133,"EPHEMERIS_TYPE":0,"NORAD_CAT_ID":66754,"ELEMENT_SET_NO":999,"REV_AT_EPOCH":3451,"BSTAR":0.000087872,"MEAN_MOTION_DOT":0.00001751,"MEAN_MOTION_DDOT":0},{"OBJECT_NAME":"ICEYE-X62","OBJECT_ID":"2025-276CT","EPOCH":"2026-07-13T15:14:29.264352","CLASSIFICATION_TYPE":"U","MEAN_MOTION":15.10128811,"ECCENTRICITY":0.000064,"INCLINATION":97.4194,"RA_OF_ASC_NODE":266.0153,"ARG_OF_PERICENTER":265.3989,"MEAN_ANOMALY":94.7167,"EPHEMERIS_TYPE":0,"NORAD_CAT_ID":66755,"ELEMENT_SET_NO":999,"REV_AT_EPOCH":3432,"BSTAR":0.000069543,"MEAN_MOTION_DOT":0.00001072,"MEAN_MOTION_DDOT":0},{"OBJECT_NAME":"ICEYE-X63","OBJECT_ID":"2026-004K","EPOCH":"2026-07-13T23:22:48.369216","CLASSIFICATION_TYPE":"U","MEAN_MOTION":14.88347645,"ECCENTRICITY":0.0005471,"INCLINATION":97.8013,"RA_OF_ASC_NODE":193.196,"ARG_OF_PERICENTER":55.206,"MEAN_ANOMALY":304.9671,"EPHEMERIS_TYPE":0,"NORAD_CAT_ID":67372,"ELEMENT_SET_NO":999,"REV_AT_EPOCH":2728,"BSTAR":0.00005607,"MEAN_MOTION_DOT":0.00000465,"MEAN_MOTION_DDOT":0},{"OBJECT_NAME":"ICEYE-X64","OBJECT_ID":"2026-004L","EPOCH":"2026-07-13T22:55:41.210112","CLASSIFICATION_TYPE":"U","MEAN_MOTION":14.87985396,"ECCENTRICITY":0.0007306,"INCLINATION":97.8026,"RA_OF_ASC_NODE":193.0972,"ARG_OF_PERICENTER":57.3222,"MEAN_ANOMALY":302.8698,"EPHEMERIS_TYPE":0,"NORAD_CAT_ID":67373,"ELEMENT_SET_NO":999,"REV_AT_EPOCH":2727,"BSTAR":0.000079104,"MEAN_MOTION_DOT":0.00000671,"MEAN_MOTION_DDOT":0},{"OBJECT_NAME":"ICEYE-X71","OBJECT_ID":"2026-067CG","EPOCH":"2026-07-13T19:48:54.398304","CLASSIFICATION_TYPE":"U","MEAN_MOTION":14.91789195,"ECCENTRICITY":0.0001119,"INCLINATION":97.7625,"RA_OF_ASC_NODE":152.654,"ARG_OF_PERICENTER":352.2626,"MEAN_ANOMALY":7.8575,"EPHEMERIS_TYPE":0,"NORAD_CAT_ID":68494,"ELEMENT_SET_NO":999,"REV_AT_EPOCH":1569,"BSTAR":0.0001523,"MEAN_MOTION_DOT":0.0000148,"MEAN_MOTION_DDOT":0},{"OBJECT_NAME":"ICEYE-X73","OBJECT_ID":"2026-067CJ","EPOCH":"2026-07-13T20:29:31.324992","CLASSIFICATION_TYPE":"U","MEAN_MOTION":14.92345285,"ECCENTRICITY":0.0001386,"INCLINATION":97.762,"RA_OF_ASC_NODE":152.7665,"ARG_OF_PERICENTER":150.7205,"MEAN_ANOMALY":209.4092,"EPHEMERIS_TYPE":0,"NORAD_CAT_ID":68496,"ELEMENT_SET_NO":999,"REV_AT_EPOCH":1570,"BSTAR":0.00012017,"MEAN_MOTION_DOT":0.00001173,"MEAN_MOTION_DDOT":0},{"OBJECT_NAME":"ICEYE-X75","OBJECT_ID":"2026-067CK","EPOCH":"2026-07-13T20:35:45.111264","CLASSIFICATION_TYPE":"U","MEAN_MOTION":14.92172422,"ECCENTRICITY":0.0001294,"INCLINATION":97.7605,"RA_OF_ASC_NODE":152.7385,"ARG_OF_PERICENTER":146.8802,"MEAN_ANOMALY":213.2498,"EPHEMERIS_TYPE":0,"NORAD_CAT_ID":68497,"ELEMENT_SET_NO":999,"REV_AT_EPOCH":1570,"BSTAR":0.000041319,"MEAN_MOTION_DOT":0.00000365,"MEAN_MOTION_DDOT":0},{"OBJECT_NAME":"ICEYE-X74","OBJECT_ID":"2026-067CN","EPOCH":"2026-07-13T21:24:14.940576","CLASSIFICATION_TYPE":"U","MEAN_MOTION":14.91789619,"ECCENTRICITY":0.0000946,"INCLINATION":97.7632,"RA_OF_ASC_NODE":152.7292,"ARG_OF_PERICENTER":348.8973,"MEAN_ANOMALY":11.2225,"EPHEMERIS_TYPE":0,"NORAD_CAT_ID":68500,"ELEMENT_SET_NO":999,"REV_AT_EPOCH":1570,"BSTAR":0.00015154,"MEAN_MOTION_DOT":0.00001472,"MEAN_MOTION_DDOT":0},{"OBJECT_NAME":"ICEYE-X76","OBJECT_ID":"2026-067CQ","EPOCH":"2026-07-13T19:41:41.358048","CLASSIFICATION_TYPE":"U","MEAN_MOTION":14.91748923,"ECCENTRICITY":0.0000646,"INCLINATION":97.7639,"RA_OF_ASC_NODE":152.6771,"ARG_OF_PERICENTER":330.575,"MEAN_ANOMALY":29.5432,"EPHEMERIS_TYPE":0,"NORAD_CAT_ID":68502,"ELEMENT_SET_NO":999,"REV_AT_EPOCH":1569,"BSTAR":0.000065095,"MEAN_MOTION_DOT":0.000006,"MEAN_MOTION_DDOT":0}]}
